0 COSMOS 1513
1 14546U 83120A   13281.50828359  .00000065  00000-0  52671-4 0  1302
2 14546 082.9388 063.1710 0038340 207.4351 217.4049 13.74066728495973
0 COSMOS 1513
1 14546U 83120A   13282.82776826  .00000049  00000-0  35627-4 0  1314
2 14546 082.9389 062.1944 0038426 203.7487 264.4317 13.74066973496159
0 COSMOS 1513
1 14546U 83120A   13283.84779053  .00000046  00000-0  32342-4 0  1321
2 14546 082.9392 061.4394 0038490 200.8762 270.1466 13.74067257496299
0 COSMOS 1513
1 14546U 83120A   13286.45924082  .00000012  00000-0 -34142-5 0  1342
2 14546 082.9400 059.5067 0038658 193.5424 228.1150 13.74067373496655
0 COSMOS 1513
1 14546U 83120A   13287.47964579  .00000013  00000-0 -28134-5 0  1356
2 14546 082.9402 058.7516 0038733 190.7313 235.6626 13.74067338496794
0 COSMOS 1513
1 14546U 83120A   13288.49977744  .00000046  00000-0  33045-4 0  1369
2 14546 082.9404 057.9968 0038794 187.9334 241.8465 13.74067391496931
0 COSMOS 1513
1 14546U 83120A   13289.51497684  .00000054  00000-0  40689-4 0  1375
2 14546 082.9407 057.2457 0038854 185.1003 223.6811 13.74067435497078
0 COSMOS 1513
1 14546U 83120A   13290.76471416  .00000069  00000-0  57019-4 0  1381
2 14546 082.9408 056.3211 0038935 181.6647 285.6401 13.74067360497241
0 COSMOS 1513
1 14546U 83120A   13291.93637712  .00000072  00000-0  59649-4 0  1390
2 14546 082.9408 055.4542 0039009 178.4395 321.3999 13.74067418497407
0 COSMOS 1513
1 14546U 83120A   13292.95393344  .00000072  00000-0  59833-4 0  1400
2 14546 082.9407 054.7014 0039068 175.6767 314.8161 13.74067466497545
0 COSMOS 1513
1 14546U 83120A   13293.97484116  .00000071  00000-0  59412-4 0  1414
2 14546 082.9408 053.9460 0039123 172.8733 324.8418 13.74067639497689
0 COSMOS 1513
1 14546U 83120A   13295.48636375  .00000064  00000-0  51696-4 0  1427
2 14546 082.9409 052.8277 0039211 168.7496 241.7189 13.74067935497896
